{"type": "FeatureCollection", "features": [ {"type": "Feature", "properties": {"norad_id": 66557, "name": "STARLINK-35699", "group": "last-30-days", "lat": -35.50583179319602, "lon": 89.4819985998819, "alt_km": 417.52415359682254, "timestamp": "2025-12-09T14:52:24.941958+00:00", "meta": {"OBJECT_NAME": "STARLINK-35699", "OBJECT_ID": "2025-268A", "EPOCH": "2025-12-09T06:00:02.000160", "MEAN_MOTION": 15.50470436, "ECCENTRICITY": 0.00010952, "INCLINATION": 43.0006, "RA_OF_ASC_NODE": 141.606, "ARG_OF_PERICENTER": 270.0276, "MEAN_ANOMALY": 125.467, "EPHEMERIS_TYPE": 0, "CLASSIFICATION_TYPE": "U", "NORAD_CAT_ID": 66557, "ELEMENT_SET_NO": 999, "REV_AT_EPOCH": 410, "BSTAR": 0.0016124283, "MEAN_MOTION_DOT": 0.00095038, "MEAN_MOTION_DDOT": 0}, "tle": {"line1": "1 66557U 25268A   25343.25002315  .00095038  00000+0  16124-2 0  9997", "line2": "2 66557  43.0006 141.6060 0001095 270.0276 125.4670 15.50470436  4106"}}, "geometry": {"type": "Point", "coordinates": [89.4819985998819, -35.50583179319602]}}, {"type": "Feature", "properties": {"norad_id": 66558, "name": "STARLINK-35695", "group": "last-30-days", "lat": -34.64975933268134, "lon": 91.5644073340056, "alt_km": 417.41208260056374, "timestamp": "2025-12-09T14:52:24.941968+00:00", "meta": {"OBJECT_NAME": "STARLINK-35695", "OBJECT_ID": "2025-268B", "EPOCH": "2025-12-09T06:00:02.000160", "MEAN_MOTION": 15.50478965, "ECCENTRICITY": 0.00012053, "INCLINATION": 43.0005, "RA_OF_ASC_NODE": 141.6011, "ARG_OF_PERICENTER": 271.9836, "MEAN_ANOMALY": 125.4177, "EPHEMERIS_TYPE": 0, "CLASSIFICATION_TYPE": "U", "NORAD_CAT_ID": 66558, "ELEMENT_SET_NO": 999, "REV_AT_EPOCH": 410, "BSTAR": 0.0014193641, "MEAN_MOTION_DOT": 0.0008352, "MEAN_MOTION_DDOT": 0}, "tle": {"line1": "1 66558U 25268B   25343.25002315  .00083520  00000+0  14194-2 0  9996", "line2": "2 66558  43.0005 141.6011 0001205 271.9836 125.4177 15.50478965  4104"}}, "geometry": {"type": "Point", "coordinates": [91.5644073340056, -34.64975933268134]}}, {"type": "Feature", "properties": {"norad_id": 66559, "name": "STARLINK-35419", "group": "last-30-days", "lat": -33.71576965391296, "lon": 93.70001768734298, "alt_km": 416.9388943911399, "timestamp": "2025-12-09T14:52:24.941978+00:00", "meta": {"OBJECT_NAME": "STARLINK-35419", "OBJECT_ID": "2025-268C", "EPOCH": "2025-12-09T06:00:02.000160", "MEAN_MOTION": 15.50594606, "ECCENTRICITY": 0.00021925, "INCLINATION": 43.0005, "RA_OF_ASC_NODE": 141.597, "ARG_OF_PERICENTER": 262.9882, "MEAN_ANOMALY": 136.331, "EPHEMERIS_TYPE": 0, "CLASSIFICATION_TYPE": "U", "NORAD_CAT_ID": 66559, "ELEMENT_SET_NO": 999, "REV_AT_EPOCH": 410, "BSTAR": -0.001280334, "MEAN_MOTION_DOT": -0.00074787, "MEAN_MOTION_DDOT": 0}, "tle": {"line1": "1 66559U 25268C   25343.25002315 -.00074787  00000+0 -12803-2 0  9999", "line2": "2 66559  43.0005 141.5970 0002192 262.9882 136.3310 15.50594606  4106"}}, "geometry": {"type": "Point", "coordinates": [93.70001768734298, -33.71576965391296]}}, {"type": "Feature", "properties": {"norad_id": 66560, "name": "STARLINK-35411", "group": "last-30-days", "lat": -32.790079908766394, "lon": 95.69576206391355, "alt_km": 416.89017524305837, "timestamp": "2025-12-09T14:52:24.941989+00:00", "meta": {"OBJECT_NAME": "STARLINK-35411", "OBJECT_ID": "2025-268D", "EPOCH": "2025-12-09T06:00:02.000160", "MEAN_MOTION": 15.50547124, "ECCENTRICITY": 0.00021336, "INCLINATION": 43.0004, "RA_OF_ASC_NODE": 141.5931, "ARG_OF_PERICENTER": 263.5698, "MEAN_ANOMALY": 137.6838, "EPHEMERIS_TYPE": 0, "CLASSIFICATION_TYPE": "U", "NORAD_CAT_ID": 66560, "ELEMENT_SET_NO": 999, "REV_AT_EPOCH": 410, "BSTAR": 0.00019782566, "MEAN_MOTION_DOT": 0.00011267, "MEAN_MOTION_DDOT": 0}, "tle": {"line1": "1 66560U 25268D   25343.25002315  .00011267  00000+0  19783-3 0  9998", "line2": "2 66560  43.0004 141.5931 0002133 263.5698 137.6838 15.50547124  4103"}}, "geometry": {"type": "Point", "coordinates": [95.69576206391355, -32.790079908766394]}}, {"type": "Feature", "properties": {"norad_id": 66561, "name": "STARLINK-35305", "group": "last-30-days", "lat": -30.841350956668244, "lon": 99.57174292396924, "alt_km": 416.8671729625139, "timestamp": "2025-12-09T14:52:24.941999+00:00", "meta": {"OBJECT_NAME": "STARLINK-35305", "OBJECT_ID": "2025-268E", "EPOCH": "2025-12-09T06:00:02.000160", "MEAN_MOTION": 15.50592933, "ECCENTRICITY": 0.00021039, "INCLINATION": 43.0006, "RA_OF_ASC_NODE": 141.5828, "ARG_OF_PERICENTER": 265.5478, "MEAN_ANOMALY": 139.5243, "EPHEMERIS_TYPE": 0, "CLASSIFICATION_TYPE": "U", "NORAD_CAT_ID": 66561, "ELEMENT_SET_NO": 999, "REV_AT_EPOCH": 405, "BSTAR": -0.001238764, "MEAN_MOTION_DOT": -0.00072386, "MEAN_MOTION_DDOT": 0}, "tle": {"line1": "1 66561U 25268E   25343.25002315 -.00072386  00000+0 -12388-2 0  9993", "line2": "2 66561  43.0006 141.5828 0002103 265.5478 139.5243 15.50592933  4059"}}, "geometry": {"type": "Point", "coordinates": [99.57174292396924, -30.841350956668244]}}, {"type": "Feature", "properties": {"norad_id": 66562, "name": "STARLINK-35579", "group": "last-30-days", "lat": -31.831269269405333, "lon": 97.6521871296981, "alt_km": 416.9519458156665, "timestamp": "2025-12-09T14:52:24.942015+00:00", "meta": {"OBJECT_NAME": "STARLINK-35579", "OBJECT_ID": "2025-268F", "EPOCH": "2025-12-09T06:00:02.000160", "MEAN_MOTION": 15.50559791, "ECCENTRICITY": 0.00021241, "INCLINATION": 43.0004, "RA_OF_ASC_NODE": 141.5876, "ARG_OF_PERICENTER": 261.1528, "MEAN_ANOMALY": 142.0175, "EPHEMERIS_TYPE": 0, "CLASSIFICATION_TYPE": "U", "NORAD_CAT_ID": 66562, "ELEMENT_SET_NO": 999, "REV_AT_EPOCH": 410, "BSTAR": -0.00040068248, "MEAN_MOTION_DOT": -0.00023762, "MEAN_MOTION_DDOT": 0}, "tle": {"line1": "1 66562U 25268F   25343.25002315 -.00023762  00000+0 -40068-3 0  9995", "line2": "2 66562  43.0004 141.5876 0002124 261.1528 142.0175 15.50559791  4106"}}, "geometry": {"type": "Point", "coordinates": [97.6521871296981, -31.831269269405333]}}, {"type": "Feature", "properties": {"norad_id": 66563, "name": "STARLINK-35437", "group": "last-30-days", "lat": -29.82511315241387, "lon": 101.44805551149938, "alt_km": 416.828320093402, "timestamp": "2025-12-09T14:52:24.942025+00:00", "meta": {"OBJECT_NAME": "STARLINK-35437", "OBJECT_ID": "2025-268G", "EPOCH": "2025-12-09T06:00:02.000160", "MEAN_MOTION": 15.50548407, "ECCENTRICITY": 0.00021166, "INCLINATION": 43.0005, "RA_OF_ASC_NODE": 141.5778, "ARG_OF_PERICENTER": 262.6543, "MEAN_ANOMALY": 144.3514, "EPHEMERIS_TYPE": 0, "CLASSIFICATION_TYPE": "U", "NORAD_CAT_ID": 66563, "ELEMENT_SET_NO": 999, "REV_AT_EPOCH": 410, "BSTAR": 0.00021641174, "MEAN_MOTION_DOT": 0.00012361, "MEAN_MOTION_DDOT": 0}, "tle": {"line1": "1 66563U 25268G   25343.25002315  .00012361  00000+0  21641-3 0  9993", "line2": "2 66563  43.0005 141.5778 0002116 262.6543 144.3514 15.50548407  4107"}}, "geometry": {"type": "Point", "coordinates": [101.44805551149938, -29.82511315241387]}}, {"type": "Feature", "properties": {"norad_id": 66564, "name": "STARLINK-35358", "group": "last-30-days", "lat": -28.782567728061615, "lon": 103.28707612675184, "alt_km": 416.8219226754518, "timestamp": "2025-12-09T14:52:24.942035+00:00", "meta": {"OBJECT_NAME": "STARLINK-35358", "OBJECT_ID": "2025-268H", "EPOCH": "2025-12-09T06:00:02.000160", "MEAN_MOTION": 15.50598786, "ECCENTRICITY": 0.00021119, "INCLINATION": 43.0008, "RA_OF_ASC_NODE": 141.573, "ARG_OF_PERICENTER": 264.6137, "MEAN_ANOMALY": 144.2903, "EPHEMERIS_TYPE": 0, "CLASSIFICATION_TYPE": "U", "NORAD_CAT_ID": 66564, "ELEMENT_SET_NO": 999, "REV_AT_EPOCH": 405, "BSTAR": -0.0014191048, "MEAN_MOTION_DOT": -0.00082783, "MEAN_MOTION_DDOT": 0}, "tle": {"line1": "1 66564U 25268H   25343.25002315 -.00082783  00000+0 -14191-2 0  9992", "line2": "2 66564  43.0008 141.5730 0002111 264.6137 144.2903 15.50598786  4055"}}, "geometry": {"type": "Point", "coordinates": [103.28707612675184, -28.782567728061615]}}, {"type": "Feature", "properties": {"norad_id": 66565, "name": "STARLINK-35893", "group": "last-30-days", "lat": -27.715245572076697, "lon": 105.08891244179895, "alt_km": 416.7672270246676, "timestamp": "2025-12-09T14:52:24.942047+00:00", "meta": {"OBJECT_NAME": "STARLINK-35893", "OBJECT_ID": "2025-268J", "EPOCH": "2025-12-09T06:00:02.000160", "MEAN_MOTION": 15.50594381, "ECCENTRICITY": 0.00021725, "INCLINATION": 43.0009, "RA_OF_ASC_NODE": 141.5678, "ARG_OF_PERICENTER": 264.0752, "MEAN_ANOMALY": 146.7484, "EPHEMERIS_TYPE": 0, "CLASSIFICATION_TYPE": "U", "NORAD_CAT_ID": 66565, "ELEMENT_SET_NO": 999, "REV_AT_EPOCH": 410, "BSTAR": -0.0012966602, "MEAN_MOTION_DOT": -0.00075726, "MEAN_MOTION_DDOT": 0}, "tle": {"line1": "1 66565U 25268J   25343.25002315 -.00075726  00000+0 -12967-2 0  9991", "line2": "2 66565  43.0009 141.5678 0002172 264.0752 146.7484 15.50594381  4106"}}, "geometry": {"type": "Point", "coordinates": [105.08891244179895, -27.715245572076697]}}, {"type": "Feature", "properties": {"norad_id": 66566, "name": "STARLINK-35871", "group": "last-30-days", "lat": -26.626730995385095, "lon": 106.85278806806949, "alt_km": 416.8186512678967, "timestamp": "2025-12-09T14:52:24.942057+00:00", "meta": {"OBJECT_NAME": "STARLINK-35871", "OBJECT_ID": "2025-268K", "EPOCH": "2025-12-09T06:00:02.000160", "MEAN_MOTION": 15.50574736, "ECCENTRICITY": 0.00021316, "INCLINATION": 43.0007, "RA_OF_ASC_NODE": 141.5633, "ARG_OF_PERICENTER": 260.788, "MEAN_ANOMALY": 151.9638, "EPHEMERIS_TYPE": 0, "CLASSIFICATION_TYPE": "U", "NORAD_CAT_ID": 66566, "ELEMENT_SET_NO": 999, "REV_AT_EPOCH": 410, "BSTAR": -0.00088233385, "MEAN_MOTION_DOT": -0.00051758, "MEAN_MOTION_DDOT": 0}, "tle": {"line1": "1 66566U 25268K   25343.25002315 -.00051758  00000+0 -88233-3 0  9991", "line2": "2 66566  43.0007 141.5633 0002131 260.7880 151.9638 15.50574736  4107"}}, "geometry": {"type": "Point", "coordinates": [106.85278806806949, -26.626730995385095]}}]}